[{"OBJECT_NAME":"STRAND-1","OBJECT_ID":"2013-009E","EPOCH":"2026-03-09T21:53:59.161920","MEAN_MOTION":14.37095119,"ECCENTRICITY":0.00090423,"INCLINATION":98.3888,"RA_OF_ASC_NODE":251.5986,"ARG_OF_PERICENTER":161.0822,"MEAN_ANOMALY":199.0703,"EPHEMERIS_TYPE":0,"CLASSIFICATION_TYPE":"U","NORAD_CAT_ID":39090,"ELEMENT_SET_NO":999,"REV_AT_EPOCH":68280,"BSTAR":0.00017106883,"MEAN_MOTION_DOT":4.66e-6,"MEAN_MOTION_DDOT":0},{"OBJECT_NAME":"COSMOS 1275 DEB","OBJECT_ID":"1981-053UQ","EPOCH":"2026-03-04T02:27:38.237760","MEAN_MOTION":14.30785047,"ECCENTRICITY":0.00291694,"INCLINATION":82.7385,"RA_OF_ASC_NODE":352.09,"ARG_OF_PERICENTER":116.5514,"MEAN_ANOMALY":243.8668,"EPHEMERIS_TYPE":0,"CLASSIFICATION_TYPE":"U","NORAD_CAT_ID":42224,"ELEMENT_SET_NO":999,"REV_AT_EPOCH":63325,"BSTAR":0.0029028342,"MEAN_MOTION_DOT":7.658e-5,"MEAN_MOTION_DDOT":0}]
